STARLINK-36941
1 67991U 26039F   26092.83335647 -.01833909  00000+0 -64721-1 0  9995
2 67991  42.9995 272.7759 0001687 257.1853 113.5745 15.32022319  6060
